CCSDS_OMM_VERS,COMMENT,CREATION_DATE,ORIGINATOR,OBJECT_NAME,OBJECT_ID,CENTER_NAME,REF_FRAME,TIME_SYSTEM,MEAN_ELEMENT_THEORY,EPOCH,MEAN_MOTION,ECCENTRICITY,INCLINATION,RA_OF_ASC_NODE,ARG_OF_PERICENTER,MEAN_ANOMALY,EPHEMERIS_TYPE,CLASSIFICATION_TYPE,NORAD_CAT_ID,ELEMENT_SET_NO,REV_AT_EPOCH,BSTAR,MEAN_MOTION_DOT,MEAN_MOTION_DDOT,SEMIMAJOR_AXIS,PERIOD,APOAPSIS,PERIAPSIS,OBJECT_TYPE,RCS_SIZE,COUNTRY_CODE,LAUNCH_DATE,SITE,DECAY_DATE,FILE,GP_ID,TLE_LINE0,TLE_LINE1,TLE_LINE2
"2.0","GENERATED VIA SPACE-TRACK.ORG API","2019-11-20T04:17:24","18 SPCS","AEOLUS","2018-066A","EARTH","TEME","UTC","SGP4","2019-11-19T19:25:44.578272","15.86708505","0.00033210","96.7198","328.3590","104.7291","359.3233","0","U","43600","999","7196","0.00001048800000","0.00002516","0.0000000000000","6689.655","90.753","313.741","309.298","PAYLOAD","LARGE","ESA","2018-08-22","FRGUI","","2653696","143307649","0 AEOLUS","1 43600U 18066A   19323.80954373 +.00002516 +00000-0 +10488-4 0  9990","2 43600 096.7198 328.3590 0003321 104.7291 359.3233 15.86708505071964"
"2.0","GENERATED VIA SPACE-TRACK.ORG API","2019-11-20T09:50:13","18 SPCS","AEOLUS","2018-066A","EARTH","TEME","UTC","SGP4","2019-11-20T02:43:47.866080","15.86707413","0.00033750","96.7198","328.6591","100.4503","300.0623","0","U","43600","999","7201","0.00000782140000","0.00001842","0.0000000000000","6689.658","90.753","313.781","309.265","PAYLOAD","LARGE","ESA","2018-08-22","FRGUI","","2654022","143316760","0 AEOLUS","1 43600U 18066A   19324.11374845  .00001842  00000-0  78214-5 0  9998","2 43600  96.7198 328.6591 0003375 100.4503 300.0623 15.86707413 72016"
"2.0","GENERATED VIA SPACE-TRACK.ORG API","2019-11-20T14:50:13","18 SPCS","AEOLUS","2018-066A","EARTH","TEME","UTC","SGP4","2019-11-20T12:18:08.627904","15.86716127","0.00035140","96.7205","329.0543","96.5718","60.7010","0","U","43600","999","7207","0.00001357000000","0.00003297","0.0000000000000","6689.633","90.753","313.849","309.148","PAYLOAD","LARGE","ESA","2018-08-22","FRGUI","","2654113","143318866","0 AEOLUS","1 43600U 18066A   19324.51259986  .00003297  00000-0  13570-4 0  9999","2 43600  96.7205 329.0543 0003514  96.5718  60.7010 15.86716127 72073"
"2.0","GENERATED VIA SPACE-TRACK.ORG API","2019-11-20T23:20:13","18 SPCS","AEOLUS","2018-066A","EARTH","TEME","UTC","SGP4","2019-11-20T19:38:48.418080","15.86721439","0.00034970","96.7197","329.3551","88.2576","15.8476","0","U","43600","999","7212","0.00001495600000","0.00003649","0.0000000000000","6689.618","90.753","313.823","309.144","PAYLOAD","LARGE","ESA","2018-08-22","FRGUI","","2654312","143342482","0 AEOLUS","1 43600U 18066A   19324.81861595  .00003649  00000-0  14956-4 0  9997","2 43600  96.7197 329.3551 0003497  88.2576  15.8476 15.86721439 72120"
"2.0","GENERATED VIA SPACE-TRACK.ORG API","2019-11-21T06:18:00","18 SPCS","STARLINK-44","2019-029AC","EARTH","TEME","UTC","SGP4","2019-11-20T21:18:26.850528","15.05492979","0.00021230","53.0013","80.6263","119.7479","240.3720","0","U","44261","999","2645","0.00011281000000","0.00001361","0.0000000000000","6928.129","95.649","551.465","548.524","PAYLOAD","LARGE","US","2019-05-24","AFETR","","2654328","143361287","0 STARLINK-44","1 44261U 19029AC  19324.88781077 +.00001361 +00000-0 +11281-3 0  9990","2 44261 053.0013 080.6263 0002123 119.7479 240.3720 15.05492979026458"
"2.0","GENERATED VIA SPACE-TRACK.ORG API","2019-11-21T12:20:15","18 SPCS","STARLINK-44","2019-029AC","EARTH","TEME","UTC","SGP4","2019-11-21T06:52:01.645824","15.05493788","0.00020840","53.0014","78.8384","120.4290","239.6904","0","U","44261","999","2745","0.00011202000000","0.00001349","0.0000000000000","6928.127","95.649","551.436","548.548","PAYLOAD","LARGE","US","2019-05-24","AFETR","","2654516","143385505","0 STARLINK-44","1 44261U 19029AC  19325.28613016  .00001349  00000-0  11202-3 0  9991","2 44261  53.0014  78.8384 0002084 120.4290 239.6904 15.05493788 27453"
"2.0","GENERATED VIA SPACE-TRACK.ORG API","2019-11-21T14:30:13","18 SPCS","AEOLUS","2018-066A","EARTH","TEME","UTC","SGP4","2019-11-21T12:21:46.082016","15.86805234","0.00041620","96.7202","330.0418","93.1975","26.9091","0","U","43600","999","7223","0.00013301000000","0.00033783","0.0000000000000","6689.383","90.748","314.032","308.464","PAYLOAD","LARGE","ESA","2018-08-22","FRGUI","","2654617","143387795","0 AEOLUS","1 43600U 18066A   19325.51511669  .00033783  00000-0  13301-3 0  9993","2 43600  96.7202 330.0418 0004162  93.1975  26.9091 15.86805234 72230"
"2.0","GENERATED VIA SPACE-TRACK.ORG API","2019-11-21T21:40:15","18 SPCS","AEOLUS","2018-066A","EARTH","TEME","UTC","SGP4","2019-11-21T16:54:46.987200","15.86787451","0.00030970","96.7204","330.2277","95.7281","26.6485","0","U","43600","999","7226","0.00007254600000","0.00018312","0.0000000000000","6689.433","90.749","313.370","309.226","PAYLOAD","LARGE","ESA","2018-08-22","FRGUI","","2654823","143411938","0 AEOLUS","1 43600U 18066A   19325.70471050  .00018312  00000-0  72546-4 0  9991","2 43600  96.7204 330.2277 0003097  95.7281  26.6485 15.86787451 72268"
"2.0","GENERATED VIA SPACE-TRACK.ORG API","2019-11-22T06:05:54","18 SPCS","STARLINK-44","2019-029AC","EARTH","TEME","UTC","SGP4","2019-11-21T18:01:12.130176","15.05495952","0.00020450","53.0014","76.7527","120.2616","239.8575","0","U","44261","999","2658","0.00012211000000","0.00001496","0.0000000000000","6928.120","95.649","551.402","548.568","PAYLOAD","LARGE","US","2019-05-24","AFETR","","2654872","143431158","0 STARLINK-44","1 44261U 19029AC  19325.75083484 +.00001496 +00000-0 +12211-3 0  9997","2 44261 053.0014 076.7527 0002045 120.2616 239.8575 15.05495952026580"
"2.0","GENERATED VIA SPACE-TRACK.ORG API","2019-11-21T22:30:14","18 SPCS","AEOLUS","2018-066A","EARTH","TEME","UTC","SGP4","2019-11-21T19:51:55.282752","15.86793588","0.00031270","96.7204","330.3489","95.0792","9.5217","0","U","43600","999","7228","0.00007421700000","0.00018743","0.0000000000000","6689.416","90.749","313.372","309.189","PAYLOAD","LARGE","ESA","2018-08-22","FRGUI","","2654843","143412309","0 AEOLUS","1 43600U 18066A   19325.82772318  .00018743  00000-0  74217-4 0  9990","2 43600  96.7204 330.3489 0003127  95.0792   9.5217 15.86793588 72281"
"2.0","GENERATED VIA SPACE-TRACK.ORG API","2019-11-22T06:50:14","18 SPCS","AEOLUS","2018-066A","EARTH","TEME","UTC","SGP4","2019-11-22T01:40:39.825696","15.86811152","0.00034730","96.7204","330.5875","98.8866","308.2522","0","U","43600","999","7232","0.00008220700000","0.00020800","0.0000000000000","6689.366","90.748","313.555","308.908","PAYLOAD","LARGE","ESA","2018-08-22","FRGUI","","2655002","143434796","0 AEOLUS","1 43600U 18066A   19326.06990539  .00020800  00000-0  82207-4 0  9999","2 43600  96.7204 330.5875 0003473  98.8866 308.2522 15.86811152 72320"
"2.0","GENERATED VIA SPACE-TRACK.ORG API","2019-11-22T15:00:17","18 SPCS","AEOLUS","2018-066A","EARTH","TEME","UTC","SGP4","2019-11-22T11:06:35.049888","15.86837362","0.00040040","96.7210","330.9752","93.5066","37.1468","0","U","43600","999","7238","0.00009261300000","0.00023491","0.0000000000000","6689.293","90.746","313.836","308.479","PAYLOAD","LARGE","ESA","2018-08-22","FRGUI","","2655225","143439934","0 AEOLUS","1 43600U 18066A   19326.46290567  .00023491  00000-0  92613-4 0  9998","2 43600  96.7210 330.9752 0004004  93.5066  37.1468 15.86837362 72384"
"2.0","GENERATED VIA SPACE-TRACK.ORG API","2019-11-22T14:30:15","18 SPCS","STARLINK-44","2019-029AC","EARTH","TEME","UTC","SGP4","2019-11-22T11:32:45.643776","15.05499100","0.00019950","53.0015","73.4750","121.7284","238.3898","0","U","44261","999","2763","0.00013084000000","0.00001623","0.0000000000000","6928.111","95.649","551.358","548.593","PAYLOAD","LARGE","US","2019-05-24","AFETR","","2655050","143435731","0 STARLINK-44","1 44261U 19029AC  19326.48108384  .00001623  00000-0  13084-3 0  9996","2 44261  53.0015  73.4750 0001995 121.7284 238.3898 15.05499100 27631"
"2.0","GENERATED VIA SPACE-TRACK.ORG API","2019-11-22T22:50:13","18 SPCS","AEOLUS","2018-066A","EARTH","TEME","UTC","SGP4","2019-11-22T15:40:32.650752","15.86847370","0.00040940","96.7213","331.1625","93.5670","43.1728","0","U","43600","999","7241","0.00009327600000","0.00023673","0.0000000000000","6689.265","90.745","313.868","308.391","PAYLOAD","LARGE","ESA","2018-08-22","FRGUI","","2655351","143462140","0 AEOLUS","1 43600U 18066A   19326.65315568  .00023673  00000-0  93276-4 0  9996","2 43600  96.7213 331.1625 0004094  93.5670  43.1728 15.86847370 72419"
"2.0","GENERATED VIA SPACE-TRACK.ORG API","2019-11-23T07:43:43","18 SPCS","STARLINK-44","2019-029AC","EARTH","TEME","UTC","SGP4","2019-11-22T16:19:33.005568","15.05498997","0.00019860","53.0015","72.5811","121.9805","238.1376","0","U","44261","999","2672","0.00012367000000","0.00001519","0.0000000000000","6928.111","95.649","551.352","548.600","PAYLOAD","LARGE","US","2019-05-24","AFETR","","2655455","143482911","0 STARLINK-44","1 44261U 19029AC  19326.68024312 +.00001519 +00000-0 +12367-3 0  9993","2 44261 053.0015 072.5811 0001986 121.9805 238.1376 15.05498997026721"
"2.0","GENERATED VIA SPACE-TRACK.ORG API","2019-11-23T06:50:13","18 SPCS","AEOLUS","2018-066A","EARTH","TEME","UTC","SGP4","2019-11-23T01:59:39.274944","15.86882442","0.00039380","96.7216","331.5856","88.3015","342.9048","0","U","43600","999","7248","0.00010515000000","0.00026757","0.0000000000000","6689.166","90.743","313.665","308.397","PAYLOAD","LARGE","ESA","2018-08-22","FRGUI","","2655448","143464087","0 AEOLUS","1 43600U 18066A   19327.08309346  .00026757  00000-0  10515-3 0  9991","2 43600  96.7216 331.5856 0003938  88.3015 342.9048 15.86882442 72484"
